{"type":"Feature","properties":{"name":"Thailand","ISO3166-1-Alpha-3":"THA","ISO3166-1-Alpha-2":"TH"},"geometry":{"type":"MultiPolygon","coordinates":[[[[102.91,11.65],[102.91,11.74],[102.83,11.86],[102.78,11.89],[102.78,11.97],[102.77,12.01],[102.75,12.04],[102.63,12.15],[102.63,12.16],[102.65,12.16],[102.64,12.18],[102.6,12.2],[102.61,12.21],[102.61,12.22],[102.59,12.21],[102.57,12.21],[102.56,12.2],[102.56,12.18],[102.57,12.09],[102.58,12.07],[102.59,12.06],[102.58,12.05],[102.56,12.05],[102.55,12.06],[102.55,12.09],[102.53,12.11],[102.47,12.15],[102.37,12.19],[102.35,12.2],[102.34,12.2],[102.32,12.18],[102.3,12.19],[102.29,12.19],[102.29,12.22],[102.28,12.24],[102.27,12.27],[102.26,12.29],[102.29,12.28],[102.32,12.29],[102.35,12.32],[102.36,12.35],[102.35,12.37],[102.34,12.38],[102.32,12.37],[102.33,12.36],[102.34,12.36],[102.34,12.35],[102.35,12.34],[102.31,12.32],[102.29,12.32],[102.28,12.34],[102.29,12.39],[102.29,12.41],[102.3,12.43],[102.29,12.42],[102.28,12.39],[102.27,12.39],[102.27,12.4],[102.26,12.42],[102.26,12.43],[102.23,12.43],[102.22,12.44],[102.21,12.44],[102.2,12.43],[102.21,12.43],[102.21,12.4],[102.24,12.41],[102.24,12.4],[102.25,12.39],[102.25,12.38],[102.24,12.37],[102.26,12.36],[102.27,12.33],[102.26,12.31],[102.23,12.32],[102.17,12.39],[102.14,12.4],[102.12,12.41],[102.13,12.42],[102.09,12.46],[102.07,12.49],[102.08,12.51],[102.08,12.5],[102.09,12.5],[102.09,12.51],[102.11,12.52],[102.11,12.54],[102.1,12.54],[102.1,12.53],[102.09,12.52],[102.08,12.53],[102.09,12.54],[102.05,12.54],[102.04,12.55],[102.06,12.57],[102.02,12.57],[102.01,12.56],[102.02,12.55],[102.03,12.53],[102.04,12.52],[102.06,12.52],[102.06,12.47],[102.02,12.52],[102.01,12.53],[101.99,12.54],[101.96,12.54],[101.96,12.59],[101.95,12.6],[101.93,12.58],[101.95,12.54],[101.95,12.53],[101.91,12.56],[101.89,12.58],[101.91,12.58],[101.91,12.59],[101.9,12.6],[101.89,12.6],[101.88,12.61],[101.87,12.61],[101.87,12.63],[101.81,12.69],[101.78,12.7],[101.77,12.71],[101.7,12.71],[101.68,12.69],[101.67,12.67],[101.66,12.66],[101.64,12.65],[101.57,12.65],[101.57,12.63],[101.54,12.63],[101.51,12.64],[101.47,12.63],[101.44,12.62],[101.43,12.62],[101.43,12.6],[101.42,12.6],[101.39,12.61],[101.32,12.64],[101.25,12.66],[101.09,12.68],[101.07,12.68],[101.03,12.66],[100.99,12.65],[100.98,12.64],[100.97,12.62],[100.97,12.6],[100.93,12.62],[100.93,12.63],[100.94,12.64],[100.92,12.66],[100.9,12.65],[100.89,12.66],[100.88,12.66],[100.87,12.65],[100.86,12.65],[100.86,12.66],[100.87,12.66],[100.87,12.67],[100.85,12.67],[100.85,12.68],[100.86,12.7],[100.84,12.71],[100.85,12.75],[100.87,12.77],[100.89,12.76],[100.92,12.79],[100.92,12.83],[100.91,12.84],[100.91,12.85],[100.87,12.91],[100.86,12.92],[100.87,12.93],[100.88,12.93],[100.88,12.94],[100.89,12.95],[100.89,12.96],[100.9,12.97],[100.9,12.98],[100.92,12.98],[100.93,12.99],[100.93,13.03],[100.92,13.04],[100.91,13.06],[100.91,13.07],[100.9,13.08],[100.89,13.08],[100.88,13.09],[100.88,13.1],[100.9,13.13],[100.92,13.15],[100.94,13.18],[100.95,13.2],[100.94,13.22],[100.93,13.26],[100.93,13.27],[100.92,13.29],[100.91,13.29],[100.91,13.3],[100.92,13.31],[100.92,13.32],[100.93,13.34],[100.95,13.34],[100.97,13.35],[100.99,13.37],[100.99,13.42],[100.97,13.44],[100.98,13.46],[101.0,13.49],[101.0,13.5],[100.98,13.49],[100.96,13.47],[100.86,13.47],[100.81,13.49],[100.77,13.49],[100.75,13.5],[100.68,13.51],[100.65,13.52],[100.61,13.55],[100.59,13.55],[100.59,13.57],[100.6,13.58],[100.6,13.61],[100.59,13.59],[100.58,13.58],[100.58,13.52],[100.56,13.51],[100.43,13.49],[100.36,13.49],[100.34,13.48],[100.29,13.51],[100.28,13.52],[100.24,13.48],[100.15,13.44],[100.11,13.44],[100.05,13.41],[100.04,13.4],[100.03,13.38],[100.02,13.37],[100.01,13.35],[100.01,13.33],[99.99,13.32],[99.98,13.32],[99.96,13.31],[99.96,13.29],[99.97,13.26],[100.0,13.22],[100.06,13.17],[100.07,13.16],[100.07,13.15],[100.08,13.14],[100.08,13.13],[100.09,13.1],[100.1,13.06],[100.1,13.04],[100.09,13.02],[100.06,12.98],[100.05,12.97],[100.04,12.93],[100.03,12.86],[100.02,12.85],[99.97,12.75],[99.97,12.71],[99.96,12.67],[99.96,12.63],[99.98,12.56],[99.98,12.45],[100.01,12.38],[100.01,12.37],[100.0,12.35],[99.98,12.28],[99.98,12.27],[100.01,12.24],[100.01,12.23],[100.02,12.21],[100.02,12.18],[100.01,12.17],[99.99,12.16],[99.99,12.15],[99.98,12.12],[99.98,12.11],[99.96,12.07],[99.86,11.97],[99.83,11.92],[99.82,11.88],[99.84,11.84],[99.82,11.84],[99.81,11.83],[99.81,11.81],[99.82,11.78],[99.81,11.77],[99.81,11.75],[99.82,11.74],[99.78,11.74],[99.75,11.71],[99.67,11.58],[99.67,11.57],[99.66,11.55],[99.64,11.52],[99.64,11.48],[99.63,11.46],[99.63,11.44],[99.6,11.38],[99.6,11.37],[99.57,11.34],[99.57,11.26],[99.59,11.21],[99.59,11.2],[99.57,11.18],[99.56,11.2],[99.55,11.2],[99.53,11.19],[99.52,11.17],[99.5,11.15],[99.5,11.13],[99.49,11.11],[99.5,11.09],[99.51,11.06],[99.52,11.04],[99.5,11.0],[99.5,10.99],[99.49,10.97],[99.5,10.94],[99.51,10.9],[99.52,10.88],[99.51,10.87],[99.5,10.87],[99.49,10.88],[99.45,10.88],[99.44,10.87],[99.44,10.8],[99.38,10.71],[99.37,10.7],[99.37,10.69],[99.38,10.69],[99.37,10.68],[99.34,10.68],[99.33,10.66],[99.31,10.65],[99.3,10.63],[99.3,10.61],[99.29,10.56],[99.27,10.54],[99.24,10.54],[99.24,10.51],[99.27,10.51],[99.26,10.49],[99.24,10.47],[99.24,10.46],[99.25,10.44],[99.28,10.42],[99.29,10.41],[99.29,10.36],[99.26,10.36],[99.23,10.34],[99.23,10.36],[99.22,10.37],[99.21,10.37],[99.2,10.38],[99.18,10.37],[99.16,10.37],[99.15,10.36],[99.15,10.35],[99.16,10.3],[99.21,10.25],[99.22,10.23],[99.25,10.23],[99.24,10.21],[99.2,10.21],[99.19,10.2],[99.19,10.17],[99.16,10.13],[99.15,10.1],[99.15,10.08],[99.17,10.04],[99.18,10.03],[99.18,10.01],[99.16,10.0],[99.16,9.99],[99.17,9.95],[99.17,9.84],[99.16,9.83],[99.15,9.83],[99.15,9.81],[99.14,9.79],[99.15,9.77],[99.17,9.69],[99.17,9.67],[99.18,9.64],[99.21,9.6],[99.22,9.58],[99.22,9.54],[99.27,9.47],[99.32,9.39],[99.29,9.39],[99.29,9.38],[99.26,9.36],[99.25,9.36],[99.23,9.32],[99.23,9.28],[99.26,9.23],[99.3,9.22],[99.35,9.22],[99.38,9.19],[99.41,9.2],[99.47,9.2],[99.5,9.22],[99.51,9.24],[99.51,9.25],[99.52,9.27],[99.54,9.28],[99.55,9.28],[99.59,9.27],[99.61,9.28],[99.62,9.28],[99.63,9.29],[99.64,9.29],[99.67,9.3],[99.69,9.31],[99.69,9.32],[99.73,9.31],[99.74,9.32],[99.75,9.32],[99.77,9.31],[99.79,9.31],[99.8,9.32],[99.82,9.31],[99.85,9.29],[99.85,9.27],[99.86,9.26],[99.88,9.23],[99.89,9.23],[99.89,9.14],[99.9,9.13],[99.91,9.11],[99.92,9.1],[99.92,9.03],[99.93,9.01],[99.93,8.99],[99.92,8.99],[99.92,8.96],[99.93,8.88],[99.93,8.86],[99.94,8.83],[99.96,8.64],[99.98,8.58],[100.04,8.55],[100.05,8.53],[100.05,8.51],[100.08,8.47],[100.1,8.43],[100.1,8.42],[100.11,8.41],[100.13,8.4],[100.14,8.4],[100.14,8.39],[100.17,8.39],[100.19,8.4],[100.18,8.43],[100.18,8.47],[100.16,8.5],[100.13,8.51],[100.15,8.52],[100.18,8.5],[100.21,8.47],[100.22,8.45],[100.27,8.32],[100.3,8.12],[100.34,7.94],[100.37,7.83],[100.44,7.48],[100.5,7.33],[100.55,7.25],[100.57,7.23],[100.57,7.19],[100.55,7.2],[100.54,7.21],[100.5,7.24],[100.48,7.25],[100.47,7.26],[100.44,7.26],[100.43,7.27],[100.44,7.29],[100.42,7.37],[100.41,7.38],[100.41,7.53],[100.39,7.57],[100.36,7.58],[100.33,7.57],[100.3,7.54],[100.3,7.52],[100.28,7.52],[100.27,7.53],[100.27,7.56],[100.28,7.58],[100.31,7.6],[100.32,7.62],[100.33,7.66],[100.31,7.76],[100.29,7.79],[100.27,7.8],[100.23,7.78],[100.21,7.78],[100.16,7.73],[100.14,7.72],[100.14,7.7],[100.15,7.62],[100.17,7.57],[100.18,7.53],[100.19,7.51],[100.2,7.51],[100.2,7.5],[100.22,7.49],[100.23,7.48],[100.23,7.47],[100.26,7.39],[100.28,7.36],[100.3,7.34],[100.35,7.34],[100.37,7.33],[100.38,7.31],[100.38,7.27],[100.39,7.26],[100.41,7.26],[100.42,7.25],[100.43,7.25],[100.41,7.24],[100.39,7.22],[100.4,7.21],[100.4,7.2],[100.41,7.2],[100.42,7.17],[100.44,7.16],[100.47,7.16],[100.49,7.14],[100.56,7.14],[100.58,7.17],[100.59,7.18],[100.59,7.22],[100.61,7.19],[100.77,6.98],[100.78,6.97],[100.81,6.96],[100.83,6.95],[100.85,6.96],[100.87,6.95],[100.9,6.92],[100.95,6.88],[101.0,6.86],[101.19,6.86],[101.23,6.88],[101.24,6.9],[101.28,6.9],[101.29,6.88],[101.35,6.88],[101.33,6.92],[101.26,6.94],[101.29,6.95],[101.32,6.95],[101.35,6.93],[101.39,6.91],[101.42,6.89],[101.45,6.89],[101.47,6.88],[101.49,6.88],[101.5,6.87],[101.56,6.84],[101.57,6.83],[101.67,6.66],[101.72,6.57],[101.77,6.5],[101.81,6.46],[101.91,6.4],[102.02,6.3],[102.07,6.26],[102.07,6.13],[102.06,6.09],[102.03,6.07],[101.96,6.01],[101.93,5.98],[101.92,5.94],[101.92,5.9],[101.91,5.86],[101.87,5.82],[101.86,5.82],[101.86,5.81],[101.82,5.77],[101.81,5.75],[101.8,5.74],[101.78,5.74],[101.76,5.75],[101.75,5.76],[101.75,5.77],[101.73,5.79],[101.71,5.78],[101.69,5.76],[101.65,5.78],[101.63,5.83],[101.63,5.86],[101.61,5.86],[101.61,5.87],[101.6,5.87],[101.6,5.89],[101.58,5.91],[101.53,5.91],[101.5,5.89],[101.39,5.85],[101.36,5.83],[101.32,5.81],[101.28,5.8],[101.25,5.79],[101.24,5.74],[101.23,5.72],[101.23,5.7],[101.2,5.67],[101.15,5.64],[101.12,5.63],[101.09,5.66],[101.08,5.69],[101.06,5.71],[101.04,5.72],[101.03,5.73],[101.0,5.73],[100.99,5.74],[100.98,5.76],[100.97,5.77],[100.97,5.82],[101.02,5.9],[101.03,5.91],[101.05,5.91],[101.07,5.92],[101.08,5.94],[101.08,5.96],[101.09,5.99],[101.09,6.11],[101.05,6.13],[101.05,6.16],[101.07,6.17],[101.09,6.19],[101.09,6.23],[101.08,6.25],[101.07,6.25],[101.02,6.24],[101.01,6.25],[100.97,6.27],[100.96,6.27],[100.93,6.24],[100.91,6.24],[100.87,6.25],[100.86,6.25],[100.84,6.24],[100.83,6.24],[100.82,6.25],[100.82,6.3],[100.83,6.31],[100.83,6.32],[100.81,6.36],[100.81,6.41],[100.8,6.43],[100.77,6.45],[100.74,6.45],[100.73,6.46],[100.73,6.49],[100.71,6.49],[100.65,6.45],[100.63,6.44],[100.61,6.45],[100.52,6.48],[100.5,6.49],[100.47,6.51],[100.45,6.52],[100.43,6.51],[100.41,6.52],[100.39,6.52],[100.38,6.53],[100.35,6.54],[100.33,6.56],[100.32,6.58],[100.28,6.69],[100.27,6.7],[100.24,6.7],[100.23,6.69],[100.2,6.69],[100.2,6.7],[100.19,6.71],[100.17,6.7],[100.16,6.68],[100.16,6.6],[100.17,6.58],[100.17,6.57],[100.15,6.55],[100.15,6.54],[100.14,6.53],[100.15,6.51],[100.15,6.5],[100.14,6.48],[100.14,6.46],[100.13,6.44],[100.11,6.48],[100.09,6.48],[100.1,6.52],[100.1,6.53],[100.09,6.54],[100.08,6.54],[100.07,6.53],[100.06,6.51],[100.03,6.53],[100.0,6.57],[100.0,6.59],[99.99,6.6],[99.97,6.6],[99.96,6.59],[99.96,6.61],[99.97,6.62],[99.97,6.63],[99.96,6.65],[99.96,6.66],[99.94,6.66],[99.93,6.67],[99.93,6.69],[99.92,6.71],[99.89,6.73],[99.87,6.76],[99.85,6.78],[99.83,6.77],[99.82,6.77],[99.82,6.78],[99.81,6.81],[99.8,6.82],[99.71,6.85],[99.69,6.88],[99.69,6.94],[99.71,6.94],[99.71,6.96],[99.7,6.97],[99.68,6.97],[99.68,6.99],[99.69,7.01],[99.68,7.03],[99.7,7.06],[99.71,7.08],[99.72,7.08],[99.72,7.09],[99.75,7.13],[99.74,7.14],[99.7,7.12],[99.68,7.12],[99.67,7.14],[99.67,7.17],[99.64,7.15],[99.62,7.14],[99.61,7.14],[99.61,7.15],[99.6,7.15],[99.58,7.16],[99.54,7.24],[99.55,7.27],[99.57,7.28],[99.59,7.31],[99.6,7.34],[99.6,7.38],[99.57,7.32],[99.55,7.3],[99.52,7.31],[99.52,7.33],[99.53,7.37],[99.52,7.38],[99.51,7.38],[99.5,7.37],[99.49,7.35],[99.49,7.29],[99.47,7.28],[99.46,7.28],[99.45,7.29],[99.43,7.3],[99.42,7.31],[99.39,7.31],[99.38,7.32],[99.37,7.34],[99.34,7.38],[99.35,7.4],[99.35,7.42],[99.34,7.47],[99.34,7.48],[99.33,7.49],[99.33,7.5],[99.3,7.5],[99.3,7.51],[99.31,7.53],[99.31,7.55],[99.3,7.58],[99.29,7.62],[99.26,7.62],[99.25,7.63],[99.26,7.64],[99.26,7.66],[99.24,7.67],[99.23,7.68],[99.21,7.68],[99.21,7.69],[99.19,7.71],[99.15,7.73],[99.14,7.74],[99.13,7.77],[99.12,7.77],[99.12,7.73],[99.11,7.71],[99.09,7.69],[99.06,7.7],[99.03,7.72],[99.03,7.79],[99.01,7.82],[99.06,7.85],[99.06,7.88],[99.07,7.91],[99.07,7.92],[99.05,7.91],[99.04,7.9],[99.03,7.9],[99.02,7.91],[99.01,7.94],[99.0,7.94],[98.98,7.95],[98.97,7.96],[98.96,7.98],[98.96,8.01],[98.95,8.02],[98.94,8.02],[98.92,8.04],[98.92,8.05],[98.91,8.05],[98.9,8.04],[98.89,8.02],[98.87,8.02],[98.86,8.01],[98.84,8.0],[98.83,8.01],[98.82,8.01],[98.82,8.04],[98.81,8.04],[98.8,8.05],[98.79,8.05],[98.79,8.03],[98.78,8.02],[98.77,8.02],[98.77,8.05],[98.75,8.06],[98.75,8.14],[98.74,8.15],[98.75,8.18],[98.75,8.2],[98.74,8.21],[98.73,8.25],[98.71,8.23],[98.7,8.3],[98.7,8.31],[98.68,8.3],[98.65,8.28],[98.64,8.29],[98.63,8.29],[98.63,8.28],[98.62,8.28],[98.62,8.29],[98.63,8.35],[98.66,8.38],[98.64,8.39],[98.62,8.39],[98.6,8.4],[98.6,8.37],[98.57,8.37],[98.55,8.36],[98.53,8.34],[98.51,8.33],[98.5,8.34],[98.49,8.34],[98.49,8.32],[98.47,8.34],[98.47,8.32],[98.45,8.33],[98.43,8.32],[98.42,8.31],[98.45,8.29],[98.46,8.28],[98.46,8.22],[98.45,8.18],[98.42,8.15],[98.41,8.16],[98.4,8.16],[98.4,8.15],[98.39,8.14],[98.38,8.15],[98.36,8.19],[98.33,8.2],[98.32,8.21],[98.3,8.21],[98.28,8.23],[98.28,8.28],[98.27,8.3],[98.26,8.31],[98.24,8.41],[98.2,8.53],[98.2,8.57],[98.21,8.58],[98.21,8.57],[98.22,8.55],[98.22,8.54],[98.25,8.51],[98.25,8.53],[98.24,8.55],[98.22,8.57],[98.22,8.58],[98.23,8.58],[98.23,8.61],[98.24,8.64],[98.24,8.67],[98.22,8.71],[98.22,8.74],[98.23,8.74],[98.24,8.75],[98.25,8.75],[98.25,8.77],[98.26,8.83],[98.26,8.85],[98.28,8.88],[98.29,8.92],[98.31,8.95],[98.32,8.98],[98.34,8.98],[98.35,8.97],[98.36,8.97],[98.36,9.0],[98.37,9.01],[98.39,9.04],[98.36,9.02],[98.34,9.02],[98.33,9.03],[98.33,9.05],[98.34,9.06],[98.37,9.06],[98.38,9.07],[98.37,9.1],[98.34,9.14],[98.33,9.16],[98.32,9.19],[98.32,9.21],[98.33,9.2],[98.35,9.2],[98.36,9.21],[98.37,9.23],[98.35,9.24],[98.35,9.25],[98.36,9.27],[98.36,9.28],[98.38,9.3],[98.38,9.32],[98.4,9.38],[98.41,9.4],[98.43,9.43],[98.44,9.52],[98.46,9.55],[98.49,9.53],[98.52,9.55],[98.53,9.57],[98.53,9.58],[98.49,9.58],[98.49,9.59],[98.48,9.6],[98.46,9.6],[98.47,9.62],[98.49,9.63],[98.5,9.63],[98.5,9.64],[98.51,9.65],[98.51,9.66],[98.49,9.69],[98.51,9.69],[98.51,9.71],[98.49,9.71],[98.5,9.72],[98.52,9.71],[98.53,9.7],[98.57,9.74],[98.56,9.75],[98.52,9.75],[98.52,9.74],[98.51,9.74],[98.51,9.77],[98.53,9.79],[98.54,9.79],[98.56,9.8],[98.57,9.81],[98.57,9.82],[98.58,9.84],[98.57,9.84],[98.56,9.82],[98.55,9.81],[98.54,9.81],[98.53,9.82],[98.53,9.83],[98.51,9.84],[98.55,9.88],[98.56,9.87],[98.57,9.87],[98.58,9.88],[98.57,9.88],[98.59,9.89],[98.59,9.91],[98.58,9.91],[98.57,9.92],[98.6,9.95],[98.63,9.95],[98.63,9.96],[98.62,9.97],[98.61,9.97],[98.61,9.96],[98.6,9.97],[98.6,9.99],[98.65,10.07],[98.66,10.09],[98.69,10.16],[98.71,10.21],[98.73,10.25],[98.73,10.29],[98.75,10.33],[98.75,10.35],[98.77,10.41],[98.78,10.46],[98.79,10.5],[98.79,10.52],[98.78,10.58],[98.75,10.61],[98.75,10.62],[98.76,10.67],[98.77,10.69],[98.81,10.75],[98.83,10.76],[98.84,10.77],[98.87,10.77],[98.88,10.78],[98.88,10.8],[98.89,10.81],[98.93,10.81],[98.97,10.82],[98.99,10.84],[98.99,10.88],[98.98,10.9],[98.98,10.93],[98.99,10.94],[98.99,10.95],[99.0,10.96],[99.01,10.96],[99.02,10.95],[99.06,10.95],[99.06,10.96],[99.07,10.99],[99.09,11.01],[99.13,11.03],[99.16,11.06],[99.17,11.08],[99.18,11.09],[99.21,11.1],[99.21,11.11],[99.24,11.2],[99.26,11.22],[99.29,11.26],[99.33,11.34],[99.36,11.38],[99.37,11.39],[99.37,11.41],[99.38,11.44],[99.42,11.48],[99.44,11.52],[99.44,11.6],[99.45,11.61],[99.49,11.63],[99.53,11.63],[99.54,11.64],[99.61,11.73],[99.62,11.75],[99.63,11.82],[99.63,11.83],[99.61,11.83],[99.59,11.84],[99.56,11.87],[99.55,11.9],[99.56,11.92],[99.57,11.96],[99.57,11.99],[99.55,12.01],[99.53,12.01],[99.52,12.03],[99.52,12.05],[99.54,12.1],[99.54,12.12],[99.55,12.13],[99.54,12.14],[99.52,12.14],[99.47,12.13],[99.45,12.13],[99.45,12.16],[99.46,12.16],[99.47,12.17],[99.47,12.2],[99.46,12.22],[99.46,12.23],[99.45,12.24],[99.46,12.26],[99.45,12.27],[99.45,12.28],[99.43,12.3],[99.43,12.31],[99.42,12.33],[99.42,12.38],[99.41,12.41],[99.39,12.45],[99.39,12.48],[99.4,12.5],[99.4,12.51],[99.41,12.53],[99.41,12.55],[99.4,12.57],[99.4,12.58],[99.39,12.59],[99.34,12.62],[99.32,12.64],[99.32,12.65],[99.31,12.65],[99.29,12.66],[99.28,12.67],[99.27,12.67],[99.27,12.7],[99.26,12.71],[99.23,12.71],[99.21,12.73],[99.21,12.79],[99.18,12.82],[99.18,12.83],[99.17,12.84],[99.17,12.87],[99.16,12.9],[99.15,12.91],[99.15,12.93],[99.16,12.94],[99.17,12.96],[99.16,12.98],[99.12,13.02],[99.09,13.04],[99.09,13.08],[99.1,13.1],[99.11,13.13],[99.1,13.15],[99.1,13.17],[99.11,13.19],[99.13,13.2],[99.17,13.2],[99.19,13.21],[99.19,13.25],[99.17,13.29],[99.17,13.3],[99.18,13.31],[99.18,13.32],[99.19,13.33],[99.19,13.34],[99.18,13.36],[99.19,13.41],[99.19,13.43],[99.15,13.58],[99.15,13.72],[99.11,13.76],[99.1,13.78],[99.09,13.83],[99.09,13.87],[99.07,13.89],[99.06,13.89],[99.05,13.91],[99.01,13.95],[99.0,13.97],[98.98,13.99],[98.95,14.03],[98.95,14.07],[98.94,14.09],[98.92,14.1],[98.89,14.1],[98.87,14.11],[98.75,14.2],[98.73,14.22],[98.71,14.27],[98.66,14.27],[98.65,14.29],[98.64,14.3],[98.62,14.3],[98.61,14.31],[98.6,14.31],[98.59,14.32],[98.55,14.38],[98.48,14.52],[98.47,14.52],[98.45,14.53],[98.45,14.54],[98.44,14.57],[98.42,14.61],[98.3,14.72],[98.24,14.81],[98.24,14.85],[98.23,14.86],[98.22,14.86],[98.22,14.92],[98.21,14.94],[98.2,14.98],[98.19,14.99],[98.19,15.0],[98.2,15.01],[98.2,15.05],[98.17,15.08],[98.16,15.11],[98.16,15.13],[98.19,15.16],[98.19,15.18],[98.18,15.19],[98.18,15.22],[98.22,15.22],[98.23,15.23],[98.25,15.24],[98.28,15.29],[98.32,15.29],[98.34,15.28],[98.37,15.26],[98.39,15.26],[98.39,15.29],[98.38,15.29],[98.38,15.31],[98.39,15.32],[98.4,15.32],[98.4,15.36],[98.44,15.37],[98.46,15.37],[98.47,15.38],[98.5,15.37],[98.52,15.36],[98.53,15.35],[98.53,15.33],[98.56,15.36],[98.57,15.4],[98.57,15.45],[98.54,15.6],[98.55,15.66],[98.54,15.68],[98.54,15.74],[98.57,15.84],[98.58,15.85],[98.57,15.9],[98.57,15.92],[98.58,15.96],[98.58,16.0],[98.55,16.03],[98.55,16.05],[98.56,16.06],[98.57,16.05],[98.62,16.05],[98.63,16.06],[98.66,16.12],[98.68,16.13],[98.7,16.13],[98.76,16.12],[98.77,16.11],[98.78,16.11],[98.78,16.1],[98.8,16.1],[98.81,16.11],[98.83,16.14],[98.84,16.14],[98.83,16.17],[98.84,16.19],[98.84,16.21],[98.86,16.23],[98.88,16.26],[98.89,16.27],[98.89,16.32],[98.9,16.36],[98.9,16.38],[98.89,16.41],[98.86,16.42],[98.84,16.44],[98.84,16.47],[98.82,16.46],[98.81,16.44],[98.8,16.4],[98.79,16.37],[98.73,16.33],[98.7,16.28],[98.68,16.27],[98.66,16.29],[98.66,16.3],[98.64,16.37],[98.63,16.4],[98.63,16.41],[98.64,16.43],[98.64,16.44],[98.63,16.46],[98.57,16.54],[98.56,16.55],[98.56,16.56],[98.57,16.57],[98.57,16.59],[98.56,16.6],[98.55,16.62],[98.51,16.64],[98.5,16.66],[98.49,16.69],[98.49,16.7],[98.46,16.72],[98.45,16.74],[98.47,16.78],[98.49,16.78],[98.51,16.79],[98.52,16.8],[98.52,16.81],[98.5,16.83],[98.49,16.83],[98.49,16.86],[98.51,16.86],[98.52,16.85],[98.52,16.88],[98.5,16.9],[98.48,16.91],[98.48,16.94],[98.46,16.96],[98.45,17.0],[98.42,17.03],[98.38,17.05],[98.31,17.05],[98.3,17.06],[98.29,17.09],[98.3,17.1],[98.29,17.11],[98.27,17.11],[98.27,17.13],[98.28,17.14],[98.26,17.15],[98.22,17.2],[98.2,17.22],[98.19,17.22],[98.1,17.3],[98.09,17.31],[98.09,17.37],[98.08,17.38],[98.06,17.38],[98.05,17.39],[98.04,17.41],[98.03,17.42],[98.02,17.45],[98.0,17.48],[97.99,17.5],[97.98,17.51],[97.97,17.51],[97.93,17.53],[97.91,17.55],[97.77,17.68],[97.76,17.69],[97.75,17.71],[97.75,17.74],[97.71,17.78],[97.71,17.79],[97.7,17.81],[97.68,17.82],[97.68,17.83],[97.7,17.83],[97.69,17.88],[97.69,17.9],[97.72,17.94],[97.75,17.96],[97.75,17.99],[97.74,18.0],[97.73,18.04],[97.71,18.06],[97.69,18.06],[97.69,18.08],[97.7,18.08],[97.7,18.1],[97.69,18.12],[97.69,18.14],[97.68,18.15],[97.63,18.22],[97.62,18.24],[97.62,18.25],[97.64,18.26],[97.64,18.31],[97.62,18.31],[97.57,18.33],[97.56,18.33],[97.54,18.28],[97.54,18.27],[97.53,18.27],[97.49,18.29],[97.45,18.33],[97.45,18.38],[97.42,18.44],[97.39,18.49],[97.39,18.5],[97.38,18.52],[97.35,18.55],[97.38,18.55],[97.39,18.54],[97.41,18.51],[97.41,18.5],[97.42,18.5],[97.43,18.49],[97.51,18.49],[97.55,18.51],[97.62,18.55],[97.64,18.56],[97.69,18.56],[97.74,18.57],[97.75,18.57],[97.75,18.58],[97.76,18.62],[97.74,18.7],[97.74,18.76],[97.73,18.78],[97.72,18.82],[97.72,18.86],[97.71,18.88],[97.68,18.89],[97.66,18.91],[97.66,18.93],[97.67,18.94],[97.69,18.95],[97.7,18.96],[97.71,18.98],[97.72,19.02],[97.73,19.04],[97.79,19.08],[97.8,19.1],[97.81,19.11],[97.82,19.19],[97.81,19.21],[97.81,19.23],[97.8,19.24],[97.77,19.26],[97.76,19.27],[97.77,19.28],[97.8,19.28],[97.81,19.3],[97.8,19.32],[97.78,19.34],[97.78,19.37],[97.77,19.39],[97.77,19.4],[97.8,19.44],[97.85,19.49],[97.85,19.5],[97.84,19.5],[97.84,19.56],[97.85,19.57],[97.89,19.57],[97.95,19.6],[97.96,19.61],[97.97,19.63],[97.98,19.63],[97.99,19.64],[98.01,19.64],[98.01,19.71],[98.0,19.72],[98.02,19.79],[98.02,19.8],[98.05,19.81],[98.06,19.79],[98.07,19.78],[98.09,19.77],[98.11,19.78],[98.13,19.77],[98.17,19.73],[98.21,19.72],[98.22,19.71],[98.22,19.68],[98.24,19.66],[98.26,19.67],[98.31,19.69],[98.44,19.69],[98.47,19.71],[98.49,19.71],[98.52,19.68],[98.54,19.68],[98.55,19.69],[98.57,19.7],[98.59,19.7],[98.62,19.73],[98.62,19.74],[98.64,19.74],[98.73,19.76],[98.75,19.76],[98.81,19.81],[98.84,19.79],[98.88,19.75],[98.9,19.75],[98.94,19.77],[98.97,19.79],[98.99,19.8],[99.0,19.82],[99.01,19.85],[99.01,19.86],[99.0,19.88],[99.0,19.92],[99.01,19.92],[99.01,19.97],[99.02,20.04],[99.04,20.08],[99.07,20.1],[99.12,20.12],[99.18,20.12],[99.22,20.11],[99.24,20.1],[99.28,20.07],[99.3,20.06],[99.32,20.07],[99.44,20.1],[99.47,20.13],[99.49,20.14],[99.5,20.15],[99.51,20.15],[99.52,20.17],[99.53,20.2],[99.52,20.21],[99.49,20.25],[99.47,20.3],[99.47,20.32],[99.43,20.36],[99.42,20.38],[99.45,20.38],[99.5,20.35],[99.58,20.32],[99.63,20.32],[99.64,20.31],[99.67,20.31],[99.71,20.33],[99.79,20.33],[99.81,20.37],[99.83,20.4],[99.84,20.42],[99.88,20.44],[99.93,20.44],[99.94,20.45],[99.94,20.44],[99.95,20.44],[99.96,20.43],[99.96,20.41],[99.97,20.4],[99.99,20.39],[100.0,20.38],[100.02,20.38],[100.04,20.37],[100.04,20.36],[100.05,20.36],[100.06,20.34],[100.1,20.32],[100.1,20.26],[100.12,20.25],[100.13,20.24],[100.15,20.24],[100.17,20.25],[100.17,20.29],[100.18,20.3],[100.2,20.31],[100.21,20.31],[100.22,20.35],[100.24,20.37],[100.27,20.39],[100.31,20.4],[100.34,20.39],[100.36,20.37],[100.42,20.25],[100.45,20.22],[100.45,20.21],[100.46,20.2],[100.46,20.19],[100.47,20.19],[100.49,20.18],[100.49,20.17],[100.5,20.16],[100.51,20.16],[100.53,20.15],[100.54,20.15],[100.54,20.17],[100.55,20.17],[100.55,20.11],[100.54,20.07],[100.52,20.0],[100.49,19.93],[100.49,19.9],[100.48,19.88],[100.47,19.87],[100.47,19.86],[100.45,19.85],[100.44,19.85],[100.43,19.84],[100.42,19.81],[100.41,19.79],[100.38,19.76],[100.38,19.73],[100.41,19.7],[100.41,19.65],[100.42,19.63],[100.45,19.6],[100.46,19.58],[100.46,19.54],[100.47,19.52],[100.49,19.51],[100.55,19.49],[100.57,19.5],[100.57,19.51],[100.59,19.53],[100.61,19.54],[100.63,19.54],[100.71,19.51],[100.73,19.5],[100.74,19.5],[100.75,19.49],[100.75,19.48],[100.76,19.5],[100.81,19.54],[100.85,19.58],[100.86,19.6],[100.87,19.61],[101.0,19.61],[101.02,19.6],[101.07,19.58],[101.1,19.57],[101.18,19.57],[101.2,19.59],[101.23,19.59],[101.25,19.57],[101.25,19.55],[101.26,19.52],[101.25,19.49],[101.24,19.47],[101.22,19.47],[101.19,19.45],[101.18,19.42],[101.17,19.38],[101.18,19.35],[101.19,19.34],[101.2,19.34],[101.21,19.33],[101.21,19.31],[101.23,19.23],[101.23,19.14],[101.32,19.05],[101.33,19.02],[101.28,18.98],[101.28,18.97],[101.27,18.93],[101.23,18.89],[101.22,18.87],[101.22,18.86],[101.23,18.8],[101.22,18.78],[101.21,18.75],[101.21,18.71],[101.23,18.69],[101.24,18.67],[101.23,18.66],[101.22,18.64],[101.19,18.62],[101.19,18.61],[101.17,18.61],[101.16,18.6],[101.16,18.56],[101.14,18.54],[101.08,18.51],[101.07,18.51],[101.07,18.5],[101.06,18.48],[101.04,18.45],[101.03,18.43],[101.05,18.39],[101.08,18.36],[101.15,18.34],[101.16,18.32],[101.15,18.32],[101.14,18.3],[101.13,18.29],[101.13,18.24],[101.14,18.22],[101.16,18.2],[101.16,18.18],[101.15,18.14],[101.14,18.12],[101.14,18.1],[101.16,18.07],[101.17,18.05],[101.16,18.04],[101.13,18.02],[101.11,18.01],[101.09,17.98],[101.08,17.96],[101.07,17.93],[101.04,17.91],[101.01,17.9],[101.0,17.88],[101.0,17.83],[100.99,17.82],[100.97,17.81],[100.97,17.78],[100.96,17.77],[100.96,17.71],[100.95,17.7],[100.93,17.65],[100.9,17.62],[100.89,17.6],[100.89,17.57],[100.9,17.56],[100.94,17.56],[100.98,17.55],[101.02,17.53],[101.05,17.5],[101.07,17.49],[101.1,17.48],[101.12,17.46],[101.13,17.46],[101.14,17.47],[101.15,17.47],[101.16,17.5],[101.18,17.52],[101.2,17.52],[101.21,17.53],[101.23,17.57],[101.25,17.59],[101.36,17.68],[101.38,17.68],[101.4,17.71],[101.4,17.72],[101.38,17.72],[101.39,17.73],[101.43,17.73],[101.45,17.75],[101.46,17.75],[101.46,17.74],[101.47,17.72],[101.47,17.73],[101.48,17.74],[101.48,17.75],[101.5,17.77],[101.54,17.78],[101.56,17.79],[101.53,17.81],[101.55,17.81],[101.58,17.84],[101.58,17.87],[101.6,17.85],[101.61,17.87],[101.62,17.88],[101.64,17.89],[101.73,17.91],[101.73,17.93],[101.76,18.0],[101.77,18.04],[101.77,18.06],[101.79,18.07],[101.8,18.07],[101.81,18.06],[101.85,18.05],[101.88,18.03],[101.9,18.04],[102.06,18.19],[102.07,18.21],[102.15,18.21],[102.17,18.2],[102.18,18.19],[102.18,18.17],[102.19,18.15],[102.22,18.13],[102.23,18.13],[102.23,18.12],[102.26,18.09],[102.31,18.05],[102.34,18.04],[102.37,18.04],[102.39,18.02],[102.41,17.99],[102.45,17.98],[102.48,17.97],[102.57,17.97],[102.6,17.96],[102.61,17.92],[102.6,17.85],[102.6,17.84],[102.61,17.84],[102.66,17.81],[102.68,17.81],[102.68,17.82],[102.67,17.83],[102.67,17.87],[102.69,17.87],[102.72,17.88],[102.74,17.89],[102.77,17.92],[102.83,17.95],[102.85,17.97],[102.94,18.01],[102.97,18.01],[103.0,17.99],[103.02,17.98],[103.04,17.99],[103.05,18.0],[103.06,18.02],[103.07,18.03],[103.07,18.04],[103.06,18.09],[103.07,18.11],[103.07,18.13],[103.08,18.13],[103.09,18.14],[103.09,18.13],[103.13,18.15],[103.15,18.19],[103.15,18.22],[103.16,18.24],[103.17,18.25],[103.18,18.25],[103.19,18.26],[103.21,18.26],[103.27,18.28],[103.29,18.28],[103.3,18.29],[103.3,18.3],[103.29,18.31],[103.25,18.33],[103.24,18.34],[103.24,18.35],[103.23,18.35],[103.23,18.36],[103.24,18.38],[103.28,18.42],[103.31,18.43],[103.39,18.44],[103.4,18.44],[103.45,18.43],[103.47,18.42],[103.55,18.42],[103.61,18.4],[103.63,18.38],[103.64,18.38],[103.7,18.35],[103.77,18.35],[103.78,18.34],[103.8,18.34],[103.82,18.33],[103.87,18.28],[103.88,18.28],[103.89,18.29],[103.89,18.3],[103.91,18.32],[103.93,18.33],[103.98,18.33],[104.0,18.32],[104.02,18.3],[104.07,18.22],[104.11,18.11],[104.14,18.08],[104.2,18.03],[104.2,18.02],[104.21,18.01],[104.26,17.91],[104.26,17.88],[104.28,17.86],[104.29,17.86],[104.35,17.82],[104.37,17.8],[104.4,17.74],[104.41,17.73],[104.42,17.71],[104.42,17.7],[104.48,17.64],[104.64,17.56],[104.66,17.56],[104.7,17.53],[104.71,17.52],[104.75,17.46],[104.76,17.45],[104.76,17.44],[104.78,17.44],[104.79,17.43],[104.79,17.42],[104.82,17.37],[104.82,17.24],[104.81,17.19],[104.81,17.17],[104.75,17.02],[104.74,17.0],[104.75,16.94],[104.75,16.9],[104.76,16.88],[104.77,16.87],[104.77,16.84],[104.76,16.82],[104.76,16.8],[104.78,16.72],[104.78,16.69],[104.76,16.66],[104.75,16.61],[104.75,16.53],[104.78,16.5],[104.84,16.47],[104.87,16.44],[104.89,16.4],[104.9,16.37],[104.9,16.36],[104.91,16.35],[104.92,16.35],[104.97,16.3],[104.98,16.3],[104.99,16.29],[105.01,16.28],[105.02,16.28],[105.03,16.26],[105.03,16.17],[105.04,16.14],[105.06,16.12],[105.08,16.11],[105.11,16.1],[105.24,16.05],[105.29,16.05],[105.4,16.02],[105.41,16.02],[105.42,16.01],[105.42,15.99],[105.41,15.99],[105.39,15.98],[105.36,15.95],[105.36,15.92],[105.37,15.88],[105.42,15.78],[105.44,15.77],[105.45,15.76],[105.46,15.76],[105.5,15.77],[105.53,15.76],[105.57,15.75],[105.61,15.72],[105.64,15.68],[105.65,15.63],[105.64,15.58],[105.62,15.52],[105.61,15.5],[105.61,15.46],[105.6,15.44],[105.59,15.43],[105.59,15.42],[105.55,15.4],[105.51,15.39],[105.49,15.37],[105.48,15.35],[105.48,15.33],[105.5,15.32],[105.54,15.32],[105.56,15.33],[105.56,15.27],[105.5,15.23],[105.45,15.18],[105.45,15.16],[105.44,15.13],[105.44,15.11],[105.45,15.09],[105.47,15.09],[105.5,15.07],[105.5,15.06],[105.52,15.07],[105.52,15.05],[105.55,15.01],[105.59,14.99],[105.58,14.98],[105.54,14.95],[105.53,14.93],[105.55,14.9],[105.54,14.88],[105.52,14.88],[105.52,14.83],[105.5,14.83],[105.49,14.81],[105.49,14.76],[105.51,14.74],[105.5,14.69],[105.5,14.66],[105.51,14.59],[105.51,14.56],[105.5,14.54],[105.43,14.47],[105.43,14.46],[105.42,14.44],[105.42,14.43],[105.41,14.42],[105.38,14.42],[105.37,14.41],[105.36,14.41],[105.34,14.39],[105.32,14.39],[105.3,14.4],[105.29,14.4],[105.29,14.39],[105.28,14.37],[105.27,14.36],[105.25,14.36],[105.2,14.35],[105.18,14.35],[105.16,14.33],[105.1,14.23],[105.05,14.21],[105.03,14.22],[105.01,14.24],[104.98,14.3],[104.97,14.31],[104.98,14.35],[104.98,14.37],[104.96,14.39],[104.92,14.39],[104.9,14.4],[104.89,14.4],[104.87,14.41],[104.83,14.41],[104.82,14.42],[104.8,14.43],[104.79,14.44],[104.77,14.44],[104.76,14.43],[104.73,14.41],[104.71,14.41],[104.7,14.43],[104.68,14.43],[104.67,14.41],[104.65,14.41],[104.63,14.42],[104.61,14.42],[104.59,14.41],[104.58,14.4],[104.57,14.38],[104.56,14.37],[104.54,14.36],[104.53,14.36],[104.51,14.37],[104.47,14.37],[104.47,14.36],[104.44,14.36],[104.33,14.38],[104.27,14.4],[104.25,14.4],[104.23,14.39],[104.22,14.38],[104.19,14.38],[104.18,14.39],[104.18,14.4],[104.17,14.4],[104.15,14.37],[104.12,14.37],[104.12,14.38],[104.11,14.38],[104.07,14.37],[104.05,14.36],[104.04,14.35],[104.0,14.35],[103.97,14.37],[103.92,14.36],[103.91,14.36],[103.91,14.35],[103.9,14.34],[103.87,14.34],[103.85,14.36],[103.84,14.36],[103.82,14.37],[103.81,14.37],[103.79,14.36],[103.78,14.37],[103.72,14.38],[103.68,14.38],[103.67,14.39],[103.67,14.44],[103.63,14.44],[103.62,14.43],[103.62,14.41],[103.6,14.4],[103.58,14.41],[103.57,14.42],[103.53,14.42],[103.49,14.4],[103.46,14.37],[103.44,14.37],[103.43,14.38],[103.41,14.38],[103.38,14.36],[103.36,14.35],[103.27,14.35],[103.24,14.34],[103.2,14.33],[103.14,14.32],[103.12,14.31],[103.09,14.3],[103.02,14.24],[103.0,14.23],[102.99,14.22],[102.95,14.21],[102.93,14.2],[102.92,14.19],[102.91,14.17],[102.91,14.13],[102.9,14.12],[102.88,14.09],[102.88,14.07],[102.87,14.05],[102.87,14.02],[102.85,14.0],[102.8,13.96],[102.77,13.94],[102.75,13.9],[102.74,13.85],[102.73,13.83],[102.71,13.81],[102.71,13.8],[102.7,13.79],[102.7,13.76],[102.67,13.74],[102.57,13.69],[102.54,13.67],[102.54,13.65],[102.56,13.63],[102.6,13.61],[102.58,13.6],[102.53,13.57],[102.51,13.57],[102.45,13.56],[102.37,13.57],[102.33,13.56],[102.31,13.54],[102.31,13.53],[102.33,13.51],[102.33,13.27],[102.38,13.14],[102.4,13.1],[102.45,13.05],[102.46,13.02],[102.47,13.01],[102.49,13.0],[102.49,12.98],[102.47,12.98],[102.47,12.97],[102.48,12.96],[102.48,12.95],[102.46,12.93],[102.47,12.92],[102.47,12.91],[102.48,12.88],[102.48,12.84],[102.49,12.82],[102.5,12.81],[102.5,12.8],[102.51,12.79],[102.51,12.78],[102.5,12.75],[102.48,12.74],[102.48,12.68],[102.49,12.66],[102.5,12.65],[102.56,12.63],[102.59,12.61],[102.66,12.53],[102.69,12.52],[102.7,12.51],[102.7,12.48],[102.72,12.47],[102.75,12.45],[102.76,12.44],[102.76,12.43],[102.77,12.42],[102.76,12.4],[102.73,12.38],[102.72,12.36],[102.72,12.34],[102.69,12.18],[102.7,12.14],[102.75,12.06],[102.77,12.04],[102.79,12.0],[102.8,11.95],[102.84,11.87],[102.89,11.81],[102.93,11.73],[102.93,11.67],[102.91,11.65]]],[[[97.87,9.38],[97.84,9.4],[97.84,9.42],[97.85,9.43],[97.86,9.43],[97.87,9.42],[97.87,9.41],[97.88,9.39],[97.87,9.38]]],[[[99.7,9.54],[99.7,9.52],[99.68,9.51],[99.67,9.52],[99.7,9.54]]],[[[99.68,9.62],[99.68,9.62]]],[[[99.25,6.57],[99.26,6.57],[99.26,6.56],[99.25,6.56],[99.22,6.54],[99.19,6.53],[99.17,6.54],[99.16,6.55],[99.18,6.55],[99.2,6.57],[99.21,6.57],[99.24,6.58],[99.25,6.57]]],[[[99.67,6.52],[99.67,6.5],[99.66,6.49],[99.63,6.55],[99.6,6.58],[99.6,6.6],[99.63,6.63],[99.62,6.65],[99.62,6.66],[99.63,6.66],[99.65,6.68],[99.65,6.72],[99.66,6.72],[99.68,6.67],[99.68,6.62],[99.7,6.59],[99.7,6.53],[99.68,6.53],[99.68,6.52],[99.67,6.52]]],[[[99.41,7.27],[99.42,7.26],[99.45,7.25],[99.45,7.24],[99.42,7.24],[99.39,7.21],[99.38,7.19],[99.38,7.25],[99.39,7.28],[99.41,7.27]]],[[[99.03,7.64],[99.07,7.62],[99.08,7.61],[99.08,7.57],[99.09,7.54],[99.1,7.5],[99.12,7.48],[99.1,7.47],[99.08,7.48],[99.06,7.5],[99.03,7.56],[99.03,7.62],[99.02,7.64],[99.03,7.64]]],[[[99.12,7.66],[99.13,7.64],[99.13,7.63],[99.12,7.61],[99.12,7.6],[99.11,7.59],[99.1,7.6],[99.09,7.6],[99.09,7.61],[99.08,7.62],[99.07,7.62],[99.04,7.66],[99.07,7.68],[99.1,7.67],[99.12,7.66]]],[[[98.54,8.1],[98.54,8.11],[98.59,8.08],[98.6,8.06],[98.61,8.03],[98.61,7.93],[98.6,7.9],[98.59,7.9],[98.57,7.94],[98.57,7.96],[98.56,7.98],[98.56,7.99],[98.57,7.99],[98.58,8.0],[98.58,8.02],[98.57,8.03],[98.55,8.04],[98.55,8.05],[98.53,8.09],[98.53,8.12],[98.54,8.12],[98.54,8.1]]],[[[98.42,7.9],[98.42,7.91],[98.43,7.91],[98.43,7.92],[98.44,7.9],[98.44,7.89],[98.43,7.87],[98.4,7.86],[98.4,7.82],[98.36,7.83],[98.34,7.83],[98.34,7.81],[98.32,7.77],[98.31,7.77],[98.29,7.78],[98.29,7.79],[98.28,7.86],[98.27,7.87],[98.27,7.89],[98.28,7.9],[98.29,7.9],[98.28,7.92],[98.26,7.93],[98.25,7.93],[98.27,7.95],[98.27,7.98],[98.28,7.99],[98.28,8.03],[98.27,8.07],[98.28,8.08],[98.29,8.1],[98.29,8.15],[98.28,8.19],[98.29,8.19],[98.3,8.18],[98.3,8.19],[98.31,8.19],[98.34,8.16],[98.34,8.11],[98.35,8.11],[98.36,8.12],[98.37,8.11],[98.39,8.1],[98.41,8.08],[98.41,8.09],[98.42,8.1],[98.43,8.1],[98.44,8.08],[98.44,8.07],[98.42,8.03],[98.42,7.99],[98.41,7.99],[98.4,7.98],[98.4,7.94],[98.42,7.9]]],[[[98.64,8.17],[98.62,8.1],[98.62,8.09],[98.59,8.1],[98.57,8.12],[98.6,8.13],[98.59,8.15],[98.62,8.18],[98.62,8.19],[98.64,8.19],[98.64,8.17]]],[[[98.3,9.15],[98.31,9.13],[98.32,9.12],[98.32,9.08],[98.3,9.06],[98.31,9.05],[98.29,9.04],[98.25,9.04],[98.24,9.05],[98.24,9.06],[98.25,9.14],[98.25,9.15],[98.26,9.16],[98.28,9.16],[98.3,9.15]]],[[[100.07,9.59],[100.08,9.59],[100.09,9.57],[100.09,9.56],[100.08,9.55],[100.07,9.52],[100.07,9.49],[100.06,9.46],[100.03,9.45],[100.03,9.43],[100.0,9.43],[99.96,9.42],[99.95,9.42],[99.94,9.44],[99.94,9.47],[99.93,9.49],[99.94,9.51],[99.94,9.53],[99.93,9.55],[99.93,9.57],[99.94,9.58],[99.98,9.58],[100.04,9.56],[100.06,9.57],[100.07,9.59]]],[[[98.41,9.77],[98.42,9.75],[98.42,9.73],[98.4,9.71],[98.38,9.73],[98.39,9.74],[98.4,9.76],[98.41,9.77]]],[[[100.04,9.8],[100.07,9.78],[100.08,9.74],[100.09,9.67],[100.08,9.67],[100.05,9.69],[100.0,9.71],[99.99,9.72],[99.99,9.74],[99.97,9.76],[99.97,9.77],[99.98,9.79],[99.99,9.8],[100.04,9.8]]],[[[102.56,11.71],[102.59,11.71],[102.61,11.68],[102.61,11.65],[102.59,11.62],[102.59,11.61],[102.61,11.61],[102.59,11.59],[102.6,11.56],[102.59,11.56],[102.58,11.57],[102.58,11.59],[102.57,11.59],[102.56,11.6],[102.53,11.6],[102.54,11.62],[102.54,11.65],[102.53,11.67],[102.53,11.68],[102.55,11.75],[102.56,11.76],[102.57,11.74],[102.57,11.72],[102.56,11.71]]],[[[102.4,12.04],[102.41,12.04],[102.44,11.98],[102.44,11.97],[102.43,11.96],[102.41,11.97],[102.38,12.0],[102.38,11.97],[102.35,11.97],[102.31,11.98],[102.31,11.97],[102.29,11.97],[102.29,12.06],[102.28,12.07],[102.26,12.13],[102.27,12.13],[102.27,12.14],[102.26,12.14],[102.26,12.15],[102.31,12.15],[102.34,12.12],[102.36,12.11],[102.37,12.1],[102.38,12.07],[102.4,12.05],[102.4,12.04]]],[[[97.87,9.43],[97.85,9.44],[97.85,9.46],[97.87,9.47],[97.9,9.47],[97.9,9.44],[97.87,9.44],[97.87,9.43]]],[[[98.29,9.0],[98.3,9.0],[98.31,8.98],[98.31,8.96],[98.29,8.93],[98.27,8.88],[98.26,8.88],[98.25,8.9],[98.25,8.92],[98.26,8.94],[98.26,8.97],[98.25,9.0],[98.26,9.01],[98.28,9.01],[98.29,9.0]]]]}}